{"type": "FeatureCollection", "features": [ {"type": "Feature", "properties": {"norad_id": 32289, "name": "YAOGAN-3", "group": "resource", "lat": 21.502728576882678, "lon": 8.736455634749472, "alt_km": 597.7296503584812, "timestamp": "2025-12-11T05:00:25.967613+00:00", "meta": {"OBJECT_NAME": "YAOGAN-3", "OBJECT_ID": "2007-055A", "EPOCH": "2025-12-11T00:04:27.662016", "MEAN_MOTION": 14.89842198, "ECCENTRICITY": 0.00012777, "INCLINATION": 97.8367, "RA_OF_ASC_NODE": 11.6432, "ARG_OF_PERICENTER": 73.1289, "MEAN_ANOMALY": 287.0069, "EPHEMERIS_TYPE": 0, "CLASSIFICATION_TYPE": "U", "NORAD_CAT_ID": 32289, "ELEMENT_SET_NO": 999, "REV_AT_EPOCH": 97783, "BSTAR": 0.00036176875, "MEAN_MOTION_DOT": 3.42e-05, "MEAN_MOTION_DDOT": 0}, "tle": {"line1": "1 32289U 07055A   25345.00309794  .00003420  00000+0  36177-3 0  9997", "line2": "2 32289  97.8367  11.6432 0001277  73.1289 287.0069 14.89842198977830"}}, "geometry": {"type": "Point", "coordinates": [8.736455634749472, 21.502728576882678]}}, {"type": "Feature", "properties": {"norad_id": 32376, "name": "COSMO-SKYMED 2", "group": "resource", "lat": -16.746381699943708, "lon": 168.94416761937092, "alt_km": 627.6310752462132, "timestamp": "2025-12-11T05:00:25.967624+00:00", "meta": {"OBJECT_NAME": "COSMO-SKYMED 2", "OBJECT_ID": "2007-059A", "EPOCH": "2025-12-10T22:36:08.483040", "MEAN_MOTION": 14.82162717, "ECCENTRICITY": 0.00015258, "INCLINATION": 97.8812, "RA_OF_ASC_NODE": 166.2926, "ARG_OF_PERICENTER": 85.2408, "MEAN_ANOMALY": 274.8979, "EPHEMERIS_TYPE": 0, "CLASSIFICATION_TYPE": "U", "NORAD_CAT_ID": 32376, "ELEMENT_SET_NO": 999, "REV_AT_EPOCH": 97411, "BSTAR": 0.00011934028, "MEAN_MOTION_DOT": 8.98e-06, "MEAN_MOTION_DDOT": 0}, "tle": {"line1": "1 32376U 07059A   25344.94176485  .00000898  00000+0  11934-3 0  9999", "line2": "2 32376  97.8812 166.2926 0001525  85.2408 274.8979 14.82162717974117"}}, "geometry": {"type": "Point", "coordinates": [168.94416761937092, -16.746381699943708]}}, {"type": "Feature", "properties": {"norad_id": 32382, "name": "RADARSAT-2", "group": "resource", "lat": -38.85760055391151, "lon": 162.83388280018033, "alt_km": 798.7509806352828, "timestamp": "2025-12-11T05:00:25.967635+00:00", "meta": {"OBJECT_NAME": "RADARSAT-2", "OBJECT_ID": "2007-061A", "EPOCH": "2025-12-10T22:56:49.376256", "MEAN_MOTION": 14.29980417, "ECCENTRICITY": 0.00010985, "INCLINATION": 98.5799, "RA_OF_ASC_NODE": 349.5716, "ARG_OF_PERICENTER": 87.3124, "MEAN_ANOMALY": 272.8184, "EPHEMERIS_TYPE": 0, "CLASSIFICATION_TYPE": "U", "NORAD_CAT_ID": 32382, "ELEMENT_SET_NO": 999, "REV_AT_EPOCH": 93905, "BSTAR": -3.0041339e-05, "MEAN_MOTION_DOT": -1.21e-06, "MEAN_MOTION_DDOT": 0}, "tle": {"line1": "1 32382U 07061A   25344.95612704 -.00000121  00000+0 -30041-4 0  9991", "line2": "2 32382  98.5799 349.5716 0001098  87.3124 272.8184 14.29980417939058"}}, "geometry": {"type": "Point", "coordinates": [162.83388280018033, -38.85760055391151]}}, {"type": "Feature", "properties": {"norad_id": 32783, "name": "CARTOSAT-2A", "group": "resource", "lat": 38.68658010776645, "lon": -138.62472629021426, "alt_km": 635.38835923222, "timestamp": "2025-12-11T05:00:25.967646+00:00", "meta": {"OBJECT_NAME": "CARTOSAT-2A", "OBJECT_ID": "2008-021A", "EPOCH": "2025-12-10T23:30:06.935616", "MEAN_MOTION": 14.78931713, "ECCENTRICITY": 0.00120567, "INCLINATION": 97.7928, "RA_OF_ASC_NODE": 34.8572, "ARG_OF_PERICENTER": 10.2751, "MEAN_ANOMALY": 349.8705, "EPHEMERIS_TYPE": 0, "CLASSIFICATION_TYPE": "U", "NORAD_CAT_ID": 32783, "ELEMENT_SET_NO": 999, "REV_AT_EPOCH": 95098, "BSTAR": 0.00019271072, "MEAN_MOTION_DOT": 1.372e-05, "MEAN_MOTION_DDOT": 0}, "tle": {"line1": "1 32783U 08021A   25344.97924694  .00001372  00000+0  19271-3 0  9997", "line2": "2 32783  97.7928  34.8572 0012056  10.2751 349.8705 14.78931713950987"}}, "geometry": {"type": "Point", "coordinates": [-138.62472629021426, 38.68658010776645]}}, {"type": "Feature", "properties": {"norad_id": 33320, "name": "HUANJING 1A (HJ-1A)", "group": "resource", "lat": -18.567957854946503, "lon": -23.839489453495233, "alt_km": 616.1644155660952, "timestamp": "2025-12-11T05:00:25.967656+00:00", "meta": {"OBJECT_NAME": "HUANJING 1A (HJ-1A)", "OBJECT_ID": "2008-041A", "EPOCH": "2025-12-10T22:36:56.315808", "MEAN_MOTION": 14.83388119, "ECCENTRICITY": 0.00203303, "INCLINATION": 97.6545, "RA_OF_ASC_NODE": 333.316, "ARG_OF_PERICENTER": 40.1729, "MEAN_ANOMALY": 320.0984, "EPHEMERIS_TYPE": 0, "CLASSIFICATION_TYPE": "U", "NORAD_CAT_ID": 33320, "ELEMENT_SET_NO": 999, "REV_AT_EPOCH": 93049, "BSTAR": 0.00044796509, "MEAN_MOTION_DOT": 3.637e-05, "MEAN_MOTION_DDOT": 0}, "tle": {"line1": "1 33320U 08041A   25344.94231847  .00003637  00000+0  44797-3 0  9992", "line2": "2 33320  97.6545 333.3160 0020330  40.1729 320.0984 14.83388119930496"}}, "geometry": {"type": "Point", "coordinates": [-23.839489453495233, -18.567957854946503]}}, {"type": "Feature", "properties": {"norad_id": 33321, "name": "HUANJING 1B (HJ-1B)", "group": "resource", "lat": -26.04500315716128, "lon": 153.51036959922564, "alt_km": 641.7477135935596, "timestamp": "2025-12-11T05:00:25.967666+00:00", "meta": {"OBJECT_NAME": "HUANJING 1B (HJ-1B)", "OBJECT_ID": "2008-041B", "EPOCH": "2025-12-10T23:13:30.475776", "MEAN_MOTION": 14.8281293, "ECCENTRICITY": 0.00382665, "INCLINATION": 97.6403, "RA_OF_ASC_NODE": 337.0415, "ARG_OF_PERICENTER": 81.2341, "MEAN_ANOMALY": 279.3204, "EPHEMERIS_TYPE": 0, "CLASSIFICATION_TYPE": "U", "NORAD_CAT_ID": 33321, "ELEMENT_SET_NO": 999, "REV_AT_EPOCH": 93051, "BSTAR": 0.00020007932, "MEAN_MOTION_DOT": 1.588e-05, "MEAN_MOTION_DDOT": 0}, "tle": {"line1": "1 33321U 08041B   25344.96771384  .00001588  00000+0  20008-3 0  9992", "line2": "2 33321  97.6403 337.0415 0038266  81.2341 279.3204 14.82812930930513"}}, "geometry": {"type": "Point", "coordinates": [153.51036959922564, -26.04500315716128]}}, {"type": "Feature", "properties": {"norad_id": 33331, "name": "GEOEYE 1", "group": "resource", "lat": -67.5127108962648, "lon": 76.69821610262457, "alt_km": 683.0231346670416, "timestamp": "2025-12-11T05:00:25.967676+00:00", "meta": {"OBJECT_NAME": "GEOEYE 1", "OBJECT_ID": "2008-042A", "EPOCH": "2025-12-10T21:07:27.797376", "MEAN_MOTION": 14.64808576, "ECCENTRICITY": 0.00027358, "INCLINATION": 98.1254, "RA_OF_ASC_NODE": 56.1841, "ARG_OF_PERICENTER": 284.7275, "MEAN_ANOMALY": 75.3625, "EPHEMERIS_TYPE": 0, "CLASSIFICATION_TYPE": "U", "NORAD_CAT_ID": 33331, "ELEMENT_SET_NO": 999, "REV_AT_EPOCH": 92258, "BSTAR": 0.00018863698, "MEAN_MOTION_DOT": 9.59e-06, "MEAN_MOTION_DDOT": 0}, "tle": {"line1": "1 33331U 08042A   25344.88018284  .00000959  00000+0  18864-3 0  9996", "line2": "2 33331  98.1254  56.1841 0002735 284.7275  75.3625 14.64808576922584"}}, "geometry": {"type": "Point", "coordinates": [76.69821610262457, -67.5127108962648]}}, {"type": "Feature", "properties": {"norad_id": 33396, "name": "THEOS", "group": "resource", "lat": 33.41156509919556, "lon": 37.62266975230645, "alt_km": 822.5167208307203, "timestamp": "2025-12-11T05:00:25.967687+00:00", "meta": {"OBJECT_NAME": "THEOS", "OBJECT_ID": "2008-049A", "EPOCH": "2025-12-10T23:46:31.550880", "MEAN_MOTION": 14.20095984, "ECCENTRICITY": 0.00011382, "INCLINATION": 98.5865, "RA_OF_ASC_NODE": 43.1313, "ARG_OF_PERICENTER": 96.5576, "MEAN_ANOMALY": 263.573, "EPHEMERIS_TYPE": 0, "CLASSIFICATION_TYPE": "U", "NORAD_CAT_ID": 33396, "ELEMENT_SET_NO": 999, "REV_AT_EPOCH": 89125, "BSTAR": 6.4221791e-05, "MEAN_MOTION_DOT": 9.4e-07, "MEAN_MOTION_DDOT": 0}, "tle": {"line1": "1 33396U 08049A   25344.99064295  .00000094  00000+0  64222-4 0  9999", "line2": "2 33396  98.5865  43.1313 0001138  96.5576 263.5730 14.20095984891256"}}, "geometry": {"type": "Point", "coordinates": [37.62266975230645, 33.41156509919556]}}, {"type": "Feature", "properties": {"norad_id": 33412, "name": "COSMO-SKYMED 3", "group": "resource", "lat": 11.86434816875405, "lon": -166.08583100101228, "alt_km": 562.5689866665889, "timestamp": "2025-12-11T05:00:25.967697+00:00", "meta": {"OBJECT_NAME": "COSMO-SKYMED 3", "OBJECT_ID": "2008-054A", "EPOCH": "2025-12-10T22:34:21.609696", "MEAN_MOTION": 15.05330266, "ECCENTRICITY": 0.00158586, "INCLINATION": 97.8463, "RA_OF_ASC_NODE": 195.3018, "ARG_OF_PERICENTER": 180.0347, "MEAN_ANOMALY": 180.0881, "EPHEMERIS_TYPE": 0, "CLASSIFICATION_TYPE": "U", "NORAD_CAT_ID": 33412, "ELEMENT_SET_NO": 999, "REV_AT_EPOCH": 92860, "BSTAR": 0.00072888067, "MEAN_MOTION_DOT": 0.00010407, "MEAN_MOTION_DDOT": 0}, "tle": {"line1": "1 33412U 08054A   25344.94052789  .00010407  00000+0  72888-3 0  9999", "line2": "2 33412  97.8463 195.3018 0015858 180.0347 180.0881 15.05330266928601"}}, "geometry": {"type": "Point", "coordinates": [-166.08583100101228, 11.86434816875405]}}, {"type": "Feature", "properties": {"norad_id": 33446, "name": "YAOGAN-4", "group": "resource", "lat": 60.68710193860759, "lon": 109.67463022313672, "alt_km": 623.2918062836006, "timestamp": "2025-12-11T05:00:25.967707+00:00", "meta": {"OBJECT_NAME": "YAOGAN-4", "OBJECT_ID": "2008-061A", "EPOCH": "2025-12-10T18:45:27.285984", "MEAN_MOTION": 14.82672885, "ECCENTRICITY": 0.00137394, "INCLINATION": 97.9179, "RA_OF_ASC_NODE": 274.9001, "ARG_OF_PERICENTER": 330.1294, "MEAN_ANOMALY": 29.9134, "EPHEMERIS_TYPE": 0, "CLASSIFICATION_TYPE": "U", "NORAD_CAT_ID": 33446, "ELEMENT_SET_NO": 999, "REV_AT_EPOCH": 91774, "BSTAR": 0.00030466827, "MEAN_MOTION_DOT": 2.407e-05, "MEAN_MOTION_DDOT": 0}, "tle": {"line1": "1 33446U 08061A   25344.78156581  .00002407  00000+0  30467-3 0  9999", "line2": "2 33446  97.9179 274.9001 0013739 330.1294  29.9134 14.82672885917749"}}, "geometry": {"type": "Point", "coordinates": [109.67463022313672, 60.68710193860759]}}]}